$$SOE
2459580.500000000, A.D. 2022-Jan-01 00:00:00.0000, -2.654829223677942E+08, 4.248379680941087E+08, -1.854070699413334E+08,
2459587.500000000, A.D. 2022-Jan-08 00:00:00.0000, -2.726353775295345E+08, 4.236458641058730E+08, -1.851127154868186E+08,
2459594.500000000, A.D. 2022-Jan-15 00:00:00.0000, -2.797022875550171E+08, 4.223207380767283E+08, -1.847602326661668E+08,
2459601.500000000, A.D. 2022-Jan-22 00:00:00.0000, -2.866826283036462E+08, 4.208648152501873E+08, -1.843505245511588E+08,
2459608.500000000, A.D. 2022-Jan-29 00:00:00.0000, -2.935753998078241E+08, 4.192802604812232E+08, -1.838844685144994E+08,
2459615.500000000, A.D. 2022-Feb-05 00:00:00.0000, -3.003796259980751E+08, 4.175691803074874E+08, -1.833629171580712E+08,
2459622.500000000, A.D. 2022-Feb-12 00:00:00.0000, -3.070943524077557E+08, 4.157336238260529E+08, -1.827866994766257E+08,
2459629.500000000, A.D. 2022-Feb-19 00:00:00.0000, -3.137186431706800E+08, 4.137755847519166E+08, -1.821566219454049E+08,
2459636.500000000, A.D. 2022-Feb-26 00:00:00.0000, -3.202515786117209E+08, 4.116970039432997E+08, -1.814734694744557E+08,
2459643.500000000, A.D. 2022-Mar-05 00:00:00.0000, -3.266922532599550E+08, 4.094997717842519E+08, -1.807380062979042E+08,
2459650.500000000, A.D. 2022-Mar-12 00:00:00.0000, -3.330397740521381E+08, 4.071857303655901E+08, -1.799509768266885E+08,
2459657.500000000, A.D. 2022-Mar-19 00:00:00.0000, -3.392932586458669E+08, 4.047566754984813E+08, -1.791131064714752E+08,
2459664.500000000, A.D. 2022-Mar-26 00:00:00.0000, -3.454518338112001E+08, 4.022143585605834E+08, -1.782251024405676E+08,
2459671.500000000, A.D. 2022-Apr-02 00:00:00.0000, -3.515146338248318E+08, 3.995604881243534E+08, -1.772876545256504E+08,
2459678.500000000, A.D. 2022-Apr-09 00:00:00.0000, -3.574807985873346E+08, 3.967967313774275E+08, -1.763014359018242E+08,
2459685.500000000, A.D. 2022-Apr-16 00:00:00.0000, -3.633494710996230E+08, 3.939247159938629E+08, -1.752671039230355E+08,
2459692.500000000, A.D. 2022-Apr-23 00:00:00.0000, -3.691197955616277E+08, 3.909460335451607E+08, -1.741853007098452E+08,
2459699.500000000, A.D. 2022-Apr-30 00:00:00.0000, -3.747909179576480E+08, 3.878622422107242E+08, -1.730566535434908E+08,
2459706.500000000, A.D. 2022-May-07 00:00:00.0000, -3.803619860595418E+08, 3.846748668183269E+08, -1.718817755096318E+08,
2459713.500000000, A.D. 2022-May-14 00:00:00.0000, -3.858321474533105E+08, 3.813853992558700E+08, -1.706612662719054E+08,
2459720.500000000, A.D. 2022-May-21 00:00:00.0000, -3.912005476162332E+08, 3.779953000168700E+08, -1.693957127287255E+08,
2459727.500000000, A.D. 2022-May-28 00:00:00.0000, -3.964663285191804E+08, 3.745059999249547E+08, -1.680856895894223E+08,
2459734.500000000, A.D. 2022-Jun-04 00:00:00.0000, -4.016286274727638E+08, 3.709189017281777E+08, -1.667317599219528E+08,
2459741.500000000, A.D. 2022-Jun-11 00:00:00.0000, -4.066865760687199E+08, 3.672353815686939E+08, -1.653344756864103E+08,
2459748.500000000, A.D. 2022-Jun-18 00:00:00.0000, -4.116392991742169E+08, 3.634567903443716E+08, -1.638943782579146E+08,
2459755.500000000, A.D. 2022-Jun-25 00:00:00.0000, -4.164859139462386E+08, 3.595844549324241E+08, -1.624119989453858E+08,
2459762.500000000, A.D. 2022-Jul-02 00:00:00.0000, -4.212255287287740E+08, 3.556196792124982E+08, -1.608878595248977E+08,
2459769.500000000, A.D. 2022-Jul-09 00:00:00.0000, -4.258572414394541E+08, 3.515637450692047E+08, -1.593224728098986E+08,
2459776.500000000, A.D. 2022-Jul-16 00:00:00.0000, -4.303801374980440E+08, 3.474179144597241E+08, -1.577163431657090E+08,
2459783.500000000, A.D. 2022-Jul-23 00:00:00.0000, -4.347932894929004E+08, 3.431834326271937E+08, -1.560699667614863E+08,
2459790.500000000, A.D. 2022-Jul-30 00:00:00.0000, -4.390957584987123E+08, 3.388615291093184E+08, -1.543838318425819E+08,
2459797.500000000, A.D. 2022-Aug-06 00:00:00.0000, -4.432865934434922E+08, 3.344534171929163E+08, -1.526584193008337E+08,
2459804.500000000, A.D. 2022-Aug-13 00:00:00.0000, -4.473648293456617E+08, 3.299602945708395E+08, -1.508942032427765E+08,
2459811.500000000, A.D. 2022-Aug-20 00:00:00.0000, -4.513294859888487E+08, 3.253833447006978E+08, -1.490916514541632E+08,
2459818.500000000, A.D. 2022-Aug-27 00:00:00.0000, -4.551795669640206E+08, 3.207237381419981E+08, -1.472512258274872E+08,
2459825.500000000, A.D. 2022-Sep-03 00:00:00.0000, -4.589140588284310E+08, 3.159826337641162E+08, -1.453733827850833E+08,
2459832.500000000, A.D. 2022-Sep-10 00:00:00.0000, -4.625319302885709E+08, 3.111611798517478E+08, -1.434585737048202E+08,
2459839.500000000, A.D. 2022-Sep-17 00:00:00.0000, -4.660321313749583E+08, 3.062605151086380E+08, -1.415072453519059E+08,
2459846.500000000, A.D. 2022-Sep-24 00:00:00.0000, -4.694135925456506E+08, 3.012817695109980E+08, -1.395198403272266E+08,
2459853.500000000, A.D. 2022-Oct-01 00:00:00.0000, -4.726752234760905E+08, 2.962260649904337E+08, -1.374967975569632E+08,
2459860.500000000, A.D. 2022-Oct-08 00:00:00.0000, -4.758159111259785E+08, 2.910945164706198E+08, -1.354385528193917E+08,
2459867.500000000, A.D. 2022-Oct-15 00:00:00.0000, -4.788345180135002E+08, 2.858882344593899E+08, -1.333455391270486E+08,
2459874.500000000, A.D. 2022-Oct-22 00:00:00.0000, -4.817298828773565E+08, 2.806083275157331E+08, -1.312181869038676E+08,
2459881.500000000, A.D. 2022-Oct-29 00:00:00.0000, -4.845008212267026E+08, 2.752559020023013E+08, -1.290569244002127E+08,
2459888.500000000, A.D. 2022-Nov-05 00:00:00.0000, -4.871461236766326E+08, 2.698320618678471E+08, -1.268621783155495E+08,
2459895.500000000, A.D. 2022-Nov-12 00:00:00.0000, -4.896645540317523E+08, 2.643379097297567E+08, -1.246343743464401E+08,
2459902.500000000, A.D. 2022-Nov-19 00:00:00.0000, -4.920548478352295E+08, 2.587745483062540E+08, -1.223739376736523E+08,
2459909.500000000, A.D. 2022-Nov-26 00:00:00.0000, -4.943157111186270E+08, 2.531430818048944E+08, -1.200812934465340E+08,
2459916.500000000, A.D. 2022-Dec-03 00:00:00.0000, -4.964458191837701E+08, 2.474446172596845E+08, -1.177568672823265E+08,
2459923.500000000, A.D. 2022-Dec-10 00:00:00.0000, -4.984438153684132E+08, 2.416802658394549E+08, -1.154010857846186E+08,
2459930.500000000, A.D. 2022-Dec-17 00:00:00.0000, -5.003083097682854E+08, 2.358511441066592E+08, -1.130143770869116E+08,
2459937.500000000, A.D. 2022-Dec-24 00:00:00.0000, -5.020378778033772E+08, 2.299583751652208E+08, -1.105971714384708E+08,
2459944.500000000, A.D. 2022-Dec-31 00:00:00.0000, -5.036310582679582E+08, 2.240030898096731E+08, -1.081499018583328E+08,
2459951.500000000, A.D. 2023-Jan-07 00:00:00.0000, -5.050863507386616E+08, 2.179864286429332E+08, -1.056730047920469E+08,
2459958.500000000, A.D. 2023-Jan-14 00:00:00.0000, -5.064022143050130E+08, 2.119095456648033E+08, -1.031669205524035E+08,
2459965.500000000, A.D. 2023-Jan-21 00:00:00.0000, -5.075770682647715E+08, 2.057736101648922E+08, -1.006320937469493E+08,
2459972.500000000, A.D. 2023-Jan-28 00:00:00.0000, -5.086092911125218E+08, 1.995798067314838E+08, -9.806897404712789E+07,
2459979.500000000, A.D. 2023-Feb-04 00:00:00.0000, -5.094972180258366E+08, 1.933293364105542E+08, -9.547801703473268E+07,
2459986.500000000, A.D. 2023-Feb-11 00:00:00.0000, -5.102391386409534E+08, 1.870234188282767E+08, -9.285968497973427E+07,
2459993.500000000, A.D. 2023-Feb-18 00:00:00.0000, -5.108332951779992E+08, 1.806632944621664E+08, -9.021444761427416E+07,
2460000.500000000, A.D. 2023-Feb-25 00:00:00.0000, -5.112778806489848E+08, 1.742502269082150E+08, -8.754278294349299E+07,
2460007.500000000, A.D. 2023-Mar-04 00:00:00.0000, -5.115710370419014E+08, 1.677855051724191E+08, -8.484517810449250E+07,
2460014.500000000, A.D. 2023-Mar-11 00:00:00.0000, -5.117108534476500E+08, 1.612704459973410E+08, -8.212213027976301E+07,
2460021.500000000, A.D. 2023-Mar-18 00:00:00.0000, -5.116953640780671E+08, 1.547063961850656E+08, -7.937414767757942E+07,
2460028.500000000, A.D. 2023-Mar-25 00:00:00.0000, -5.115225459670923E+08, 1.480947348810707E+08, -7.660175060646851E+07,
2460035.500000000, A.D. 2023-Apr-01 00:00:00.0000, -5.111903159259463E+08, 1.414368762251535E+08, -7.380547265563820E+07,
2460042.500000000, A.D. 2023-Apr-08 00:00:00.0000, -5.106965273632461E+08, 1.347342736082205E+08, -7.098586183051175E+07,
2460049.500000000, A.D. 2023-Apr-15 00:00:00.0000, -5.100389693033295E+08, 1.279884244441218E+08, -6.814348152593626E+07,
2460056.500000000, A.D. 2023-Apr-22 00:00:00.0000, -5.092153657900245E+08, 1.212008724224374E+08, -6.527891175968455E+07,
2460063.500000000, A.D. 2023-Apr-29 00:00:00.0000, -5.082233729353398E+08, 1.143732095148393E+08, -6.239275074038830E+07,
2460070.500000000, A.D. 2023-May-06 00:00:00.0000, -5.070605753669649E+08, 1.075070795365636E+08, -5.948561647079526E+07,
2460077.500000000, A.D. 2023-May-13 00:00:00.0000, -5.057244830457366E+08, 1.006041823915833E+08, -5.655814837885100E+07,
2460084.500000000, A.D. 2023-May-20 00:00:00.0000, -5.042125282131525E+08, 9.366627853492089E+07, -5.361100904824100E+07,
2460091.500000000, A.D. 2023-May-27 00:00:00.0000, -5.025220622693055E+08, 8.669519364907371E+07, -5.064488607951576E+07,
2460098.500000000, A.D. 2023-Jun-03 00:00:00.0000, -5.006503525180956E+08, 7.969282358902550E+07, -4.766049409724901E+07,
2460105.500000000, A.D. 2023-Jun-10 00:00:00.0000, -4.985945787514903E+08, 7.266113961362191E+07, -4.465857692038501E+07,
2460112.500000000, A.D. 2023-Jun-17 00:00:00.0000, -4.963518295801937E+08, 6.560219387870787E+07, -4.163990992424499E+07,
2460119.500000000, A.D. 2023-Jun-24 00:00:00.0000, -4.939190981873529E+08, 5.851812528749473E+07, -3.860530263585372E+07,
2460126.500000000, A.D. 2023-Jul-01 00:00:00.0000, -4.912932772486265E+08, 5.141116657041870E+07, -3.555560153649791E+07,
2460133.500000000, A.D. 2023-Jul-08 00:00:00.0000, -4.884711546894218E+08, 4.428365346489730E+07, -3.249169287099031E+07,
2460140.500000000, A.D. 2023-Jul-15 00:00:00.0000, -4.854494115547231E+08, 3.713803321853263E+07, -2.941450560030320E+07,
$$EOE